[{"OBJECT_NAME":"YAOGAN-40 03C","OBJECT_ID":"2025-199C","EPOCH":"2026-03-10T00:01:55.612704","MEAN_MOTION":14.12427697,"ECCENTRICITY":0.0002548,"INCLINATION":85.9851,"RA_OF_ASC_NODE":88.6173,"ARG_OF_PERICENTER":88.7754,"MEAN_ANOMALY":271.3721,"EPHEMERIS_TYPE":0,"CLASSIFICATION_TYPE":"U","NORAD_CAT_ID":65546,"ELEMENT_SET_NO":999,"REV_AT_EPOCH":2606,"BSTAR":9.861614e-5,"MEAN_MOTION_DOT":2.01e-6,"MEAN_MOTION_DDOT":0},{"OBJECT_NAME":"SL-12 DEB","OBJECT_ID":"1983-127J","EPOCH":"2026-03-09T09:28:00.047136","MEAN_MOTION":11.93334548,"ECCENTRICITY":0.1064036,"INCLINATION":54.1172,"RA_OF_ASC_NODE":75.1571,"ARG_OF_PERICENTER":29.3445,"MEAN_ANOMALY":336.3099,"EPHEMERIS_TYPE":0,"CLASSIFICATION_TYPE":"U","NORAD_CAT_ID":21752,"ELEMENT_SET_NO":999,"REV_AT_EPOCH":28217,"BSTAR":0.21323192,"MEAN_MOTION_DOT":0.00082667,"MEAN_MOTION_DDOT":0}]
